satname,norad_id,inclination_deg,eccentricity,mean_motion_rev_per_day,perigee_km,apogee_km,l1,l2
STARLINK-1184,45098,53.0538,0.0003087,15.08568479,538.4376386006361,542.7092504290795,1 45098U 20006BG  26029.40334380  .00037533  00000+0  23810-2 0  9994,2 45098  53.0538  62.6323 0003087  20.7483 339.3632 15.08568479331106
STARLINK-1193,45100,53.0548,0.0002033,15.44719082,430.819076926804,433.58816142256,1 45100U 20006BJ  26029.36710689  .00118025  00000+0  24585-2 0  9999,2 45100  53.0548  58.9302 0002033  77.4537 282.6696 15.44719082331158
STARLINK-1143,45179,53.048,0.0002159,15.54801963,401.26437075895046,404.19234842122114,1 45179U 20012B   26029.50556585  .00138285  00000+0  20124-2 0  9996,2 45179  53.0480 160.2772 0002159 247.1204 112.9578 15.54801963329818
STARLINK-1202,45183,53.1536,0.0001507,15.29373177,476.65175365880623,478.7180983873095,1 45183U 20012F   26029.58335647  .00024027  00000+0  84183-3 0  9997,2 45183  53.1536 220.8508 0001507  90.9518  34.5048 15.29373177  5842
STARLINK-1216,45185,53.1603,0.0001246,15.29259789,477.16953056366583,478.8780858370692,1 45185U 20012H   26029.58335647  .00507898  00000+0  16488-1 0  9992,2 45185  53.1603 220.8706 0001246  92.6767  62.5071 15.29259789  5843
STARLINK-1225,45187,53.1507,0.000126,15.28632182,479.03617923085403,480.7644046284204,1 45187U 20012K   26029.58335647  .00956902  00000+0  31318-1 0  9997,2 45187  53.1507 221.2986 0001260 105.2303  72.6581 15.28632182  5788
STARLINK-1230,45189,53.1472,0.0001174,15.27349139,482.93487958313654,484.54604841168293,1 45189U 20012M   26029.58335647  .00897530  00000+0  30695-1 0  9997,2 45189  53.1472 221.3453 0001174 103.6137  29.9899 15.27349139  5785
STARLINK-1234,45190,53.0476,0.000977,15.53261585,400.58141504719606,413.83998445250654,1 45190U 20012N   26029.51296774  .00137359  00000+0  21110-2 0  9998,2 45190  53.0476 155.4826 0009770 178.5906 181.5133 15.53261585329777
STARLINK-1269,45197,53.1476,0.0001382,15.2762423,481.9684610878803,483.8648563191464,1 45197U 20012V   26029.58335647  .01453241  00000+0  48654-1 0  9998,2 45197  53.1476 221.2098 0001382 120.8294  27.1686 15.27624230  5735
STARLINK-1154,45198,53.0502,0.0001549,15.40032474,444.9563234571842,447.070445246256,1 45198U 20012W   26029.58335647  .00094341  00000+0  23077-2 0  9993,2 45198  53.0502 195.6828 0001549 279.4358 191.9881 15.40032474  5888
STARLINK-1199,45201,53.0543,0.0001567,15.06396233,546.137899346606,548.3083072029731,1 45201U 20012Z   26029.19167216  .00000651  00000+0  62573-4 0  9997,2 45201  53.0543 203.9310 0001567  86.7504 273.3664 15.06396233329161
STARLINK-1209,45206,53.0479,0.0013104,15.43524367,426.788506795594,444.6462563588311,1 45206U 20012AE  26028.69295216  .00102710  00000+0  22272-2 0  9997,2 45206  53.0479 164.5991 0013104 160.7000 199.4504 15.43524367328729
STARLINK-1210,45207,53.0136,0.0008081,15.87559825,303.72260123429896,314.53055663056966,1 45207U 20012AF  26029.58335647  .00370348  00000+0  13078-2 0  9998,2 45207  53.0136 100.7722 0008081 351.8690   8.1516 15.87559825  6042
STARLINK-1231,45212,53.0491,7.54e-05,15.1795109,511.5143025013458,512.55334026121,1 45212U 20012AL  26028.75204907  .00040104  00000+0  19557-2 0  9998,2 45212  53.0491 198.7315 0000754 185.5651 174.5335 15.17951090329155
STARLINK-1271,45217,53.0512,0.0001396,15.06397838,546.2514045811085,548.1849637485275,1 45217U 20012AR  26028.64615589  .00001489  00000+0  11887-3 0  9995,2 45217  53.0512 206.3827 0001396 106.8532 253.2610 15.06397838329080
STARLINK-1191,45222,53.1595,0.0001314,15.31009636,471.8984947015133,473.6989206054841,1 45222U 20012AW  26029.58335647  .00003884  00000+0  13974-3 0  9999,2 45222  53.1595 180.6266 0001314  88.8275  38.0512 15.31009636  5740
STARLINK-1212,45223,53.0524,6.75e-05,15.41686733,440.67058212096254,441.59118328512886,1 45223U 20012AX  26029.48259564  .00029643  00000+0  69886-3 0  9996,2 45223  53.0524 177.0859 0000675 293.7685  66.3249 15.41686733329572
STARLINK-1215,45225,53.1561,0.0001022,15.29383666,476.9529179172823,478.3542415117763,1 45225U 20012AZ  26028.94143693  .00007665  00000+0  27744-3 0  9990,2 45225  53.1561 182.8988 0001022  73.8284 286.2829 15.29383666329394
STARLINK-1221,45227,53.067,0.0001638,15.40400339,443.80926711206484,446.044502840783,1 45227U 20012BB  26029.41835197  .00028455  00000+0  70048-3 0  9997,2 45227  53.0670  95.4858 0001638 262.5855  97.4963 15.40400339330657
STARLINK-1222,45228,53.0549,3.07e-05,15.46273776,427.4289657178124,427.8468402968565,1 45228U 20012BC  26028.72072400  .00033227  00000+0  66975-3 0  9998,2 45228  53.0549 173.9948 0000307 121.6403 238.4634 15.46273776329436
STARLINK-1226,45229,53.1573,0.0001494,15.31007427,471.78176674576025,473.82882830426024,1 45229U 20012BD  26029.00002315  .00017378  00000+0  58280-3 0  9998,2 45229  53.1573 183.1414 0001494  80.4479 337.8541 15.31007427  5747
STARLINK-1227,45230,53.1549,0.0001414,15.30019636,474.78451657652386,476.722796854242,1 45230U 20012BE  26029.58335647  .01096754  00000+0  34476-1 0  9995,2 45230  53.1549 180.7413 0001414 100.2749 143.4957 15.30019636  5833
STARLINK-1246,45235,53.1439,0.0001711,15.26870649,483.99965789564976,486.348282909722,1 45235U 20012BK  26029.58335647  .00742331  00000+0  25811-1 0  9991,2 45235  53.1439 220.8156 0001711 103.3202  23.0386 15.26870649  5545
STARLINK-1270,45237,53.0492,0.0001777,15.41022163,441.87916143043185,444.3034259660117,1 45237U 20012BM  26029.00002315  .00026452  00000+0  63879-3 0  9990,2 45237  53.0492 176.1952 0001777 218.5784  10.0926 15.41022163  5844
STARLINK-1279,45360,53.0476,0.0007989,15.49265485,413.4434216142254,424.30368507636103,1 45360U 20019A   26029.58335647  .00145639  00000+0  25793-2 0  9995,2 45360  53.0476 287.3172 0007989  87.3095 294.2595 15.49265485  5897
STARLINK-1301,45361,53.0469,0.0010324,15.55123464,394.7941579891758,408.7933590193352,1 45361U 20019B   26029.45577127  .00127288  00000+0  18303-2 0  9992,2 45361  53.0469 295.2476 0010324  74.4181 285.7968 15.55123464324480
STARLINK-1262,45366,53.0549,0.000141,15.06408043,546.2104367404154,548.1633780823049,1 45366U 20019G   26028.88390422 -.00001746  00000+0 -98332-4 0  9998,2 45366  53.0549 345.3073 0001410 116.3829 243.7305 15.06408043323736
STARLINK-1273,45367,53.055,0.0001892,15.35845104,457.11797978390587,459.7049297191825,1 45367U 20019H   26029.58335647  .01680648  00000+0  43000-1 0  9997,2 45367  53.0550 340.1373 0001892  99.3660 305.0135 15.35845104  5838
STARLINK-1276,45368,53.0553,0.0001362,15.06415471,546.2209159417844,548.1073679728534,1 45368U 20019J   26028.61112752  .00005072  00000+0  35903-3 0  9997,2 45368  53.0553 346.5369 0001362  75.5617 284.5523 15.06415471323694
STARLINK-1277,45369,53.0554,0.00012,15.42904923,436.7231247201926,438.35888744165186,1 45369U 20019K   26029.00002315  .00093515  00000+0  20796-2 0  9997,2 45369  53.0554 341.7595 0001200  69.7467 354.3008 15.42904923  5790
STARLINK-1281,45370,53.0528,0.0001007,15.0638955,546.5462000433554,547.9409716933487,1 45370U 20019L   26028.60008901  .00000107  00000+0  26071-4 0  9990,2 45370  53.0528 346.5891 0001007 108.5044 251.6054 15.06389550323698
STARLINK-1300,45374,53.0564,0.0001549,15.06413065,546.0987855952753,548.2442461734963,1 45374U 20019Q   26028.88757368  .00003710  00000+0  26771-3 0  9991,2 45374  53.0564 345.2970 0001549  87.1189 272.9977 15.06413065323733
STARLINK-1302,45375,53.0544,6.95e-05,15.42997507,436.7946933417006,437.74203468729866,1 45375U 20019R   26029.58335647  .00052413  00000+0  11723-2 0  9996,2 45375  53.0544 338.4746 0000695  77.2299 116.8811 15.42997507  5648
STARLINK-1304,45376,53.0554,0.0005076,15.41978242,436.8103823090887,443.73243052328235,1 45376U 20019S   26029.00002315  .00024319  00000+0  56976-3 0  9991,2 45376  53.0554 338.4592 0005076  87.7017 343.1770 15.41978242  5824
STARLINK-1305,45377,53.0499,0.000637,15.452875,426.1963181989977,434.87056434117585,1 45377U 20019T   26028.96691036  .00106661  00000+0  21821-2 0  9991,2 45377  53.0499 322.6149 0006370  37.7698 322.3754 15.45287500324069
STARLINK-1319,45379,53.0519,0.0006657,15.50805445,409.8513835375752,418.8949315613372,1 45379U 20019V   26029.00002315  .00073442  00000+0  12474-2 0  9999,2 45379  53.0519 321.9528 0006657  60.3563  43.9707 15.50805445  5967
STARLINK-1266,45383,53.0545,0.0001833,15.407535,442.63374456595284,445.13469754559173,1 45383U 20019Z   26028.81822123  .00197120  00000+0  46350-2 0  9999,2 45383  53.0545 322.2036 0001833 118.5799 241.5390 15.40753500324047
STARLINK-1267,45384,53.0556,0.0008006,15.42476405,433.3456220164844,444.2609067678295,1 45384U 20019AA  26028.99649101  .00097207  00000+0  21895-2 0  9994,2 45384  53.0556 316.3645 0008006  90.4084 269.7838 15.42476405324142
STARLINK-1272,45386,53.0495,0.0006996,15.48144168,417.39771150275556,426.91268034329096,1 45386U 20019AC  26028.94220926  .00111934  00000+0  20730-2 0  9992,2 45386  53.0495 301.1710 0006996  63.6529 296.5196 15.48144168324355
STARLINK-1274,45387,53.0317,0.0010122,15.41403877,435.0617983509037,448.8684130536867,1 45387U 20019AD  26028.98626768  .00093260  00000+0  21772-2 0  9999,2 45387  53.0317 291.9144 0010122  97.3155 262.9000 15.41403877324484
STARLINK-1280,45388,53.0491,0.0007043,15.56784256,392.1992631901776,401.7426802791633,1 45388U 20019AE  26029.58335647  .00157245  00000+0  21194-2 0  9992,2 45388  53.0491 313.3950 0007043  66.4564 165.2381 15.56784256  5966
STARLINK-1283,45389,53.0492,0.001243,15.48007299,414.10276613877795,431.0092890053229,1 45389U 20019AF  26029.44103817  .00112351  00000+0  20866-2 0  9994,2 45389  53.0492 298.9328 0012430  95.2794 264.9631 15.48007299324433
STARLINK-1284,45390,53.0537,0.0002287,15.44761849,430.5204254671162,433.635417772266,1 45390U 20019AG  26029.58335647  .00129902  00000+0  26969-2 0  9999,2 45390  53.0537 318.1322 0002287  99.7559  36.2222 15.44761849  5831
